      2.10          N: GNSS NAV DATA                        RINEX VERSION / TYPE
fic2rin                                 01/04/2021 00:17:32 PGM / RUN BY / DATE
                                                            END OF HEADER
25 21  1  3 18  0  0.0 5.249632522464e-05 7.503331289627e-12 0.000000000000e+00
    6.900000000000e+01-1.562500000000e-01 4.613406452611e-09 5.743683434898e-01
    1.024454832077e-07 9.588458342478e-03 8.355826139450e-06 5.153685405731e+03
    6.480000000000e+04-1.117587089539e-07-3.035098320713e+00 7.823109626770e-08
    9.631150740430e-01 2.196250000000e+02 9.308834865308e-01-8.182840848166e-09
   -5.882387882210e-10 1.000000000000e+00 2.139000000000e+03 0.000000000000e+00
    2.400000000000e+00 0.000000000000e+00 5.587935447693e-09 6.900000000000e+01
    5.760000000000e+04 4.000000000000e+00
17 21  1  3 18  0  0.0 3.755888901651e-04 4.888534022029e-12 0.000000000000e+00
    4.500000000000e+01 1.025937500000e+02 3.764799676161e-09-1.982595663387e+00
    5.353242158890e-06 1.362199394498e-02 9.525567293167e-06 5.153529689789e+03
    6.480000000000e+04 2.756714820862e-07-1.928259903033e+00 1.601874828339e-07
    9.829367567470e-01 2.073437500000e+02-1.592640457171e+00-7.607102580642e-09
    2.821546100149e-11 1.000000000000e+00 2.139000000000e+03 0.000000000000e+00
    2.400000000000e+00 0.000000000000e+00-1.117587089539e-08 4.500000000000e+01
    5.760000000000e+04 4.000000000000e+00
23 21  1  3 18  0  0.0 1.143324188888e-04 2.046363078989e-12 0.000000000000e+00
    1.500000000000e+01-1.007812500000e+02 4.468400412527e-09 2.052192605625e+00
   -5.299225449562e-06 1.081150840037e-03 6.664544343948e-06 5.153644601822e+03
    6.480000000000e+04 7.450580596924e-09 8.194352756255e-02-3.166496753693e-08
    9.630666324366e-01 2.523750000000e+02 2.292786615994e+00-8.129624345771e-09
   -8.678932940965e-11 1.000000000000e+00 2.139000000000e+03 0.000000000000e+00
    2.400000000000e+00 0.000000000000e+00-8.381903171539e-09 2.710000000000e+02
    5.760000000000e+04 4.000000000000e+00
14 21  1  3 18  0  0.0 7.896637544036e-05 7.389644451905e-12 0.000000000000e+00
    1.350000000000e+02 4.687500000000e-01 4.645550648688e-09 2.040329748792e+00
   -2.235174179077e-08 2.357269404456e-04 8.769333362579e-06 5.153737190247e+03
    6.480000000000e+04 2.048909664154e-08-2.988317578416e+00-4.470348358154e-08
    9.593130172492e-01 2.072812500000e+02 1.903138154440e+00-8.077479316579e-09
   -6.246688771090e-10 1.000000000000e+00 2.139000000000e+03 0.000000000000e+00
    3.400000000000e+00 0.000000000000e+00-2.328306436539e-09 6.470000000000e+02
    5.760000000000e+04 4.000000000000e+00
18 21  1  3 18  0  0.0 3.384198062122e-04 3.069544618484e-12 0.000000000000e+00
    2.320000000000e+02 1.278125000000e+01 4.520902599454e-09 2.359472399530e+00
    7.152557373047e-07 1.185587025248e-03 2.793967723846e-06 5.153697740555e+03
    6.480000000000e+04-2.421438694000e-08-9.171436823957e-01 4.842877388000e-08
    9.664084186297e-01 3.281562500000e+02 3.024515622530e+00-8.339990251213e-09
    1.407201472733e-10 1.000000000000e+00 2.139000000000e+03 0.000000000000e+00
    2.400000000000e+00 0.000000000000e+00-8.381903171539e-09 1.000000000000e+03
    5.760000000000e+04 4.000000000000e+00
15 21  1  3 17 59 44.0-1.788120716810e-04 2.614797267597e-12 0.000000000000e+00
    5.000000000000e+00-4.034375000000e+01 5.159500628197e-09-2.868341128573e+00
   -2.307817339897e-06 1.310818304773e-02 1.060403883457e-05 5.153800132751e+03
    6.478400000000e+04 1.415610313416e-07 1.042312720463e+00-2.142041921616e-07
    9.284773783525e-01 1.565937500000e+02 9.632548017375e-01-8.048549540109e-09
    3.700154126271e-10 1.000000000000e+00 2.139000000000e+03 0.000000000000e+00
    2.400000000000e+00 0.000000000000e+00-1.071020960808e-08 5.000000000000e+00
    5.988000000000e+04 4.000000000000e+00
 1 21  1  3 17 59 44.0 7.861112244427e-04-6.025402399246e-12 0.000000000000e+00
    1.700000000000e+01 2.178125000000e+01 4.161244761119e-09 2.216113550710e+00
    1.063570380211e-06 1.022338739131e-02 2.473592758179e-06 5.153691589355e+03
    6.478400000000e+04-8.754432201385e-08-9.310549346781e-01-2.291053533554e-07
    9.827339465620e-01 3.443750000000e+02 8.219160014034e-01-8.169983169735e-09
    2.157232714544e-10 1.000000000000e+00 2.139000000000e+03 0.000000000000e+00
    2.400000000000e+00 0.000000000000e+00 5.122274160385e-09 1.700000000000e+01
    6.183000000000e+04 4.000000000000e+00
14 21  1  3 19 14 40.0 7.900036871433e-05 7.389644451905e-12 0.000000000000e+00
    1.360000000000e+02 2.156250000000e+00 4.681980737576e-09 2.692949403329e+00
    1.601874828339e-07 2.355920150876e-04 8.882954716682e-06 5.153737619400e+03
    6.928000000000e+04 1.043081283569e-07-2.988354088463e+00-1.303851604462e-08
    9.593102552599e-01 2.065625000000e+02 1.903940917570e+00-8.105337619846e-09
   -5.718095324479e-10 1.000000000000e+00 2.139000000000e+03 0.000000000000e+00
    2.400000000000e+00 0.000000000000e+00-2.328306436539e-09 6.480000000000e+02
    6.210000000000e+04 4.000000000000e+00
 1 21  1  3 19 59 44.0 7.860683836043e-04-6.025402399246e-12 0.000000000000e+00
    2.700000000000e+01 1.578125000000e+01 4.109456889660e-09-3.016870618919e+00
    8.661299943924e-07 1.022433827166e-02 2.661719918251e-06 5.153689710617e+03
    7.198400000000e+04 5.960464477539e-08-9.311125151337e-01-7.078051567078e-08
    9.827361453279e-01 3.401562500000e+02 8.218822226250e-01-7.981761043814e-09
    1.689356082747e-10 1.000000000000e+00 2.139000000000e+03 0.000000000000e+00
    2.400000000000e+00 0.000000000000e+00 5.122274160385e-09 2.700000000000e+01
    6.480000000000e+04 4.000000000000e+00
15 21  1  3 19 59 44.0-1.787934452295e-04 2.614797267597e-12 0.000000000000e+00
    6.000000000000e+00-4.306250000000e+01 5.034852578962e-09-1.818160495283e+00
   -2.298504114151e-06 1.310714124702e-02 1.075305044651e-05 5.153802757263e+03
    7.198400000000e+04 2.216547727585e-07 1.042254367586e+00-7.264316082001e-08
    9.284804621838e-01 1.464687500000e+02 9.631812813265e-01-8.072836266034e-09
    4.410898017322e-10 1.000000000000e+00 2.139000000000e+03 0.000000000000e+00
    2.400000000000e+00 0.000000000000e+00-1.071020960808e-08 6.000000000000e+00
    6.480000000000e+04 4.000000000000e+00
 2 21  1  3 20  0  0.0-5.619483999908e-04-4.320099833421e-12 0.000000000000e+00
    2.400000000000e+01 4.162500000000e+01 4.558761319279e-09-2.775103087851e+00
    2.197921276093e-06 2.032296091784e-02 2.348795533180e-06 5.153588008881e+03
    7.200000000000e+04 2.402812242508e-07-1.011968954123e+00 1.490116119385e-08
    9.615120786318e-01 3.340937500000e+02-1.566311467617e+00-8.057835641198e-09
    2.628680923683e-10 1.000000000000e+00 2.139000000000e+03 0.000000000000e+00
    2.400000000000e+00 0.000000000000e+00-1.769512891769e-08 2.400000000000e+01
    6.480000000000e+04 4.000000000000e+00
 4 21  1  3 20  0  0.0-1.698420383036e-04-3.069544618484e-12 0.000000000000e+00
    1.160000000000e+02-9.406250000000e+00 4.459114311438e-09-1.273877113295e+00
   -6.798654794693e-07 1.015529502183e-03 1.072324812412e-05 5.153601488113e+03
    7.200000000000e+04-2.048909664154e-08 1.187242360015e+00-2.980232238770e-08
    9.599694066476e-01 1.708437500000e+02-3.071634285737e+00-7.874970881289e-09
    4.028739241732e-10 1.000000000000e+00 2.139000000000e+03 0.000000000000e+00
    2.400000000000e+00 0.000000000000e+00-4.190951585770e-09 1.160000000000e+02
    6.480000000000e+04 4.000000000000e+00
 5 21  1  3 20  0  0.0-3.004632890224e-05-1.023181539495e-12 0.000000000000e+00
    8.300000000000e+01-1.101875000000e+02 4.649122226030e-09-1.800297036684e-01
   -5.614012479782e-06 6.024593254551e-03 6.422400474548e-06 5.153795866013e+03
    7.200000000000e+04 3.166496753693e-08 7.262986399965e-02 1.192092895508e-07
    9.551412503355e-01 2.525000000000e+02 8.892237650419e-01-8.377134655569e-09
   -1.096474243982e-10 1.000000000000e+00 2.139000000000e+03 0.000000000000e+00
    2.400000000000e+00 0.000000000000e+00-1.117587089539e-08 8.300000000000e+01
    6.480000000000e+04 4.000000000000e+00
 3 21  1  3 20  0  0.0-4.694471135736e-05-9.890754881781e-12 0.000000000000e+00
    8.100000000000e+01-1.025937500000e+02 4.267677765909e-09 2.094903234797e+00
   -5.295500159264e-06 3.260099911131e-03 7.085502147675e-06 5.153681917191e+03
    7.200000000000e+04-5.401670932770e-08 1.075359978431e-01-5.587935447693e-08
    9.682071539428e-01 2.450000000000e+02 8.774412209488e-01-8.028548706994e-09
   -8.357490980188e-11 1.000000000000e+00 2.139000000000e+03 0.000000000000e+00
    2.400000000000e+00 0.000000000000e+00 1.862645149231e-09 8.100000000000e+01
    6.480000000000e+04 4.000000000000e+00
 6 21  1  3 20  0  0.0-4.625413566828e-06-1.136868377216e-13 0.000000000000e+00
    1.000000000000e+02 2.659375000000e+01 4.248034090528e-09-2.615322752450e+00
    1.398846507072e-06 2.200625720434e-03 2.659857273102e-06 5.153681932449e+03
    7.200000000000e+04 7.450580596924e-08-9.393671825394e-01-2.980232238770e-08
    9.822305228039e-01 3.410000000000e+02-1.133590962979e+00-8.210341993700e-09
    1.471489864888e-10 1.000000000000e+00 2.139000000000e+03 0.000000000000e+00
    2.400000000000e+00 0.000000000000e+00 4.190951585770e-09 1.000000000000e+02
    6.480000000000e+04 4.000000000000e+00
29 21  1  3 20  0  0.0-2.688337117434e-04-7.389644451905e-12 0.000000000000e+00
    2.500000000000e+01 8.300000000000e+01 3.775871565921e-09-7.802068918001e-01
    4.258006811142e-06 1.446673180908e-03 9.240582585335e-06 5.153707567215e+03
    7.200000000000e+04-5.587935447693e-08-1.916143051438e+00 1.676380634308e-08
    9.847103415725e-01 2.134687500000e+02 2.219994777705e+00-7.749965674321e-09
    2.357241045694e-11 1.000000000000e+00 2.139000000000e+03 0.000000000000e+00
    2.400000000000e+00 0.000000000000e+00-1.024454832077e-08 2.500000000000e+01
    6.480000000000e+04 4.000000000000e+00
